ENV,url,state,city_name,zipcode,city,mc_city,mc_banner,banner,quote,detail,apply,doc,mc_doc,st,seo,dental,ihc,mc_docker,ifp_docker,dt,sbg
pengujian,http://pengujian.healthpocket.com/?affiliate=bankrate_qa,California,Los Angeles,90001,(800) 630-5618,(800) 630-5618,(800) 630-5618,(800) 630-5618,(800) 630-5618,(800) 630-5618,(800) 630-5618,(800) 630-5618,(800) 630-5618,(800) 630-5618,(800) 630-5618,(800) 630-5618,(800) 630-5618,(800) 630-5618,(800) 630-5618,(800) 630-5618,(800) 630-5618
pengujian,http://pengujian.healthpocket.com/?affiliate=bankrate_qa,Alaska,Anchorage,99504,(800) 630-5618,(800) 630-5618,(800) 630-5618,(800) 630-5618,(800) 630-5618,(800) 630-5618,(800) 630-5618,(800) 630-5618,(800) 630-5618,(800) 630-5618,(800) 630-5618,(800) 630-5618,(800) 630-5618,(800) 630-5618,(800) 630-5618,(800) 630-5618,(800) 630-5618
pengujian,http://pengujian.healthpocket.com/?affiliate=healthinsurance_org_qa,California,Los Angeles,90001,(800) 413-6265,(800) 413-6265,(800) 413-6265,(800) 413-6265,(800) 413-6265,(800) 413-6265,(800) 413-6265,(800) 413-6265,(800) 413-6265,(800) 413-6265,(800) 413-6265,(800) 413-6265,(800) 413-6265,(800) 413-6265,(800) 413-6265,(800) 413-6265,(800) 413-6265
pengujian,http://pengujian.healthpocket.com/?affiliate=healthinsurance_org_qa,Alaska,Anchorage,99504,(800) 413-6265,(800) 413-6265,(800) 413-6265,(800) 413-6265,(800) 413-6265,(800) 413-6265,(800) 413-6265,(800) 413-6265,(800) 413-6265,(800) 413-6265,(800) 413-6265,(800) 413-6265,(800) 413-6265,(800) 413-6265,(800) 413-6265,(800) 413-6265,(800) 413-6265
pengujian,http://pengujian.healthpocket.com/?affiliate=healthcare_com_qa,California,Los Angeles,90001,(800) 983-6917,(800) 983-6917,(800) 983-6917,(800) 983-6917,(800) 983-6917,(800) 983-6917,(800) 983-6917,(800) 983-6917,(800) 983-6917,(800) 983-6917,(800) 983-6917,(800) 983-6917,(800) 983-6917,(800) 983-6917,(800) 983-6917,(800) 983-6917,(800) 983-6917
pengujian,http://pengujian.healthpocket.com/?affiliate=healthcare_com_qa,Alaska,Anchorage,99504,(800) 983-6917,(800) 983-6917,(800) 983-6917,(800) 983-6917,(800) 983-6917,(800) 983-6917,(800) 983-6917,(800) 983-6917,(800) 983-6917,(800) 983-6917,(800) 983-6917,(800) 983-6917,(800) 983-6917,(800) 983-6917,(800) 983-6917,(800) 983-6917,(800) 983-6917
pengujian,http://pengujian.healthpocket.com/?affiliate=healthplans_com_qa,California,Los Angeles,90001,(800) 984-6593,(800) 984-6593,(800) 984-6593,(800) 984-6593,(800) 984-6593,(800) 984-6593,(800) 984-6593,(800) 984-6593,(800) 984-6593,(800) 984-6593,(800) 984-6593,(800) 984-6593,(800) 984-6593,(800) 984-6593,(800) 984-6593,(800) 984-6593,(800) 984-6593
pengujian,http://pengujian.healthpocket.com/?affiliate=healthplans_com_qa,Alaska,Anchorage,99504,(800) 984-6593,(800) 984-6593,(800) 984-6593,(800) 984-6593,(800) 984-6593,(800) 984-6593,(800) 984-6593,(800) 984-6593,(800) 984-6593,(800) 984-6593,(800) 984-6593,(800) 984-6593,(800) 984-6593,(800) 984-6593,(800) 984-6593,(800) 984-6593,(800) 984-6593
pengujian,http://pengujian.healthpocket.com/?affiliate=ca_foundation_qa,California,Los Angeles,90001,(800) 985-3417,(800) 985-3417,(800) 985-3417,(800) 985-3417,(800) 985-3417,(800) 985-3417,(800) 985-3417,(800) 985-3417,(800) 985-3417,(800) 985-3417,(800) 985-3417,(800) 985-3417,(800) 985-3417,(800) 985-3417,(800) 985-3417,(800) 985-3417,(800) 985-3417
pengujian,http://pengujian.healthpocket.com/?affiliate=ca_foundation_qa,Alaska,Anchorage,99504,(800) 985-3417,(800) 985-3417,(800) 985-3417,(800) 985-3417,(800) 985-3417,(800) 985-3417,(800) 985-3417,(800) 985-3417,(800) 985-3417,(800) 985-3417,(800) 985-3417,(800) 985-3417,(800) 985-3417,(800) 985-3417,(800) 985-3417,(800) 985-3417,(800) 985-3417
pengujian,http://pengujian.healthpocket.com/?affiliate=healthplaneducation_com_qa,California,Los Angeles,90001,(800) 987-0594,(800) 987-0594,(800) 987-0594,(800) 987-0594,(800) 987-0594,(800) 987-0594,(800) 987-0594,(800) 987-0594,(800) 987-0594,(800) 987-0594,(800) 987-0594,(800) 987-0594,(800) 987-0594,(800) 987-0594,(800) 987-0594,(800) 987-0594,(800) 987-0594
pengujian,http://pengujian.healthpocket.com/?affiliate=healthplaneducation_com_qa,Alaska,Anchorage,99504,(800) 987-0594,(800) 987-0594,(800) 987-0594,(800) 987-0594,(800) 987-0594,(800) 987-0594,(800) 987-0594,(800) 987-0594,(800) 987-0594,(800) 987-0594,(800) 987-0594,(800) 987-0594,(800) 987-0594,(800) 987-0594,(800) 987-0594,(800) 987-0594,(800) 987-0594
pengujian,http://pengujian.healthpocket.com/?affiliate=healthcarebluebook_com_qa,California,Los Angeles,90001,(800) 983-4702,(800) 983-4702,(800) 983-4702,(800) 983-4702,(800) 983-4702,(800) 983-4702,(800) 983-4702,(800) 983-4702,(800) 983-4702,(800) 983-4702,(800) 983-4702,(800) 983-4702,(800) 983-4702,(800) 983-4702,(800) 983-4702,(800) 983-4702,(800) 983-4702
pengujian,http://pengujian.healthpocket.com/?affiliate=healthcarebluebook_com_qa,Alaska,Anchorage,99504,(800) 983-4702,(800) 983-4702,(800) 983-4702,(800) 983-4702,(800) 983-4702,(800) 983-4702,(800) 983-4702,(800) 983-4702,(800) 983-4702,(800) 983-4702,(800) 983-4702,(800) 983-4702,(800) 983-4702,(800) 983-4702,(800) 983-4702,(800) 983-4702,(800) 983-4702
pengujian,http://pengujian.healthpocket.com/?affiliate=my_medicare_supplemental_qa,California,Los Angeles,90001,(800) 986-3820,(800) 986-3820,(800) 986-3820,(800) 986-3820,(800) 986-3820,(800) 986-3820,(800) 986-3820,(800) 986-3820,(800) 986-3820,(800) 986-3820,(800) 986-3820,(800) 986-3820,(800) 986-3820,(800) 986-3820,(800) 986-3820,(800) 986-3820,(800) 986-3820
pengujian,http://pengujian.healthpocket.com/?affiliate=my_medicare_supplemental_qa,Alaska,Anchorage,99504,(800) 986-3820,(800) 986-3820,(800) 986-3820,(800) 986-3820,(800) 986-3820,(800) 986-3820,(800) 986-3820,(800) 986-3820,(800) 986-3820,(800) 986-3820,(800) 986-3820,(800) 986-3820,(800) 986-3820,(800) 986-3820,(800) 986-3820,(800) 986-3820,(800) 986-3820
pengujian,http://pengujian.healthpocket.com/?affiliate=medicare_supplemental_qa,California,Los Angeles,90001,(800) 984-0581,(800) 984-0581,(800) 984-0581,(800) 984-0581,(800) 984-0581,(800) 984-0581,(800) 984-0581,(800) 984-0581,(800) 984-0581,(800) 984-0581,(800) 984-0581,(800) 984-0581,(800) 984-0581,(800) 984-0581,(800) 984-0581,(800) 984-0581,(800) 984-0581
pengujian,http://pengujian.healthpocket.com/?affiliate=medicare_supplemental_qa,Alaska,Anchorage,99504,(800) 984-0581,(800) 984-0581,(800) 984-0581,(800) 984-0581,(800) 984-0581,(800) 984-0581,(800) 984-0581,(800) 984-0581,(800) 984-0581,(800) 984-0581,(800) 984-0581,(800) 984-0581,(800) 984-0581,(800) 984-0581,(800) 984-0581,(800) 984-0581,(800) 984-0581
pengujian,http://pengujian.healthpocket.com/?affiliate=national_seniors_coalition_qa,California,Los Angeles,90001,(800) 983-8163,(800) 983-8163,(800) 983-8163,(800) 983-8163,(800) 983-8163,(800) 983-8163,(800) 983-8163,(800) 983-8163,(800) 983-8163,(800) 983-8163,(800) 983-8163,(800) 983-8163,(800) 983-8163,(800) 983-8163,(800) 983-8163,(800) 983-8163,(800) 983-8163
pengujian,http://pengujian.healthpocket.com/?affiliate=national_seniors_coalition_qa,Alaska,Anchorage,99504,(800) 983-8163,(800) 983-8163,(800) 983-8163,(800) 983-8163,(800) 983-8163,(800) 983-8163,(800) 983-8163,(800) 983-8163,(800) 983-8163,(800) 983-8163,(800) 983-8163,(800) 983-8163,(800) 983-8163,(800) 983-8163,(800) 983-8163,(800) 983-8163,(800) 983-8163
pengujian,http://pengujian.healthpocket.com/?affiliate=HII_Velocity_qa,California,Los Angeles,90001,(800) 942-1489,(800) 942-1489,(800) 942-1489,(800) 942-1489,(800) 942-1489,(800) 942-1489,(800) 942-1489,(800) 942-1489,(800) 942-1489,(800) 942-1489,(800) 942-1489,(800) 942-1489,(800) 942-1489,(800) 942-1489,(800) 942-1489,(800) 942-1489,(800) 942-1489
pengujian,http://pengujian.healthpocket.com/?affiliate=HII_Velocity_qa,Alaska,Anchorage,99504,(800) 942-1489,(800) 942-1489,(800) 942-1489,(800) 942-1489,(800) 942-1489,(800) 942-1489,(800) 942-1489,(800) 942-1489,(800) 942-1489,(800) 942-1489,(800) 942-1489,(800) 942-1489,(800) 942-1489,(800) 942-1489,(800) 942-1489,(800) 942-1489,(800) 942-1489
pengujian,http://pengujian.healthpocket.com/?affiliate=judsonmedia_qa,California,Los Angeles,90001,(800) 403-9435,(800) 403-9435,(800) 403-9435,(800) 403-9435,(800) 403-9435,(800) 403-9435,(800) 403-9435,(800) 403-9435,(800) 403-9435,(800) 403-9435,(800) 403-9435,(800) 403-9435,(800) 403-9435,(800) 403-9435,(800) 403-9435,(800) 403-9435,(800) 403-9435
pengujian,http://pengujian.healthpocket.com/?affiliate=judsonmedia_qa,Alaska,Anchorage,99504,(800) 403-9435,(800) 403-9435,(800) 403-9435,(800) 403-9435,(800) 403-9435,(800) 403-9435,(800) 403-9435,(800) 403-9435,(800) 403-9435,(800) 403-9435,(800) 403-9435,(800) 403-9435,(800) 403-9435,(800) 403-9435,(800) 403-9435,(800) 403-9435,(800) 403-9435
pengujian,http://pengujian.healthpocket.com/?affiliate=niemann_foods_qa,California,Los Angeles,90001,(800) 756-2460,(800) 756-2460,(800) 756-2460,(800) 756-2460,(800) 756-2460,(800) 756-2460,(800) 756-2460,(800) 756-2460,(800) 756-2460,(800) 756-2460,(800) 756-2460,(800) 756-2460,(800) 756-2460,(800) 756-2460,(800) 756-2460,(800) 756-2460,(800) 756-2460
pengujian,http://pengujian.healthpocket.com/?affiliate=niemann_foods_qa,Alaska,Anchorage,99504,(800) 756-2460,(800) 756-2460,(800) 756-2460,(800) 756-2460,(800) 756-2460,(800) 756-2460,(800) 756-2460,(800) 756-2460,(800) 756-2460,(800) 756-2460,(800) 756-2460,(800) 756-2460,(800) 756-2460,(800) 756-2460,(800) 756-2460,(800) 756-2460,(800) 756-2460
